{
  "links" : {
    "next" : "https://api.nasa.gov/neo/rest/v1/feed?start_date=1995-11-09&end_date=1995-11-09&detailed=true&api_key=t0TVs3DtDT2H8Oy2Zy8m2eVrNsAVKAexjcZXUckd",
    "prev" : "https://api.nasa.gov/neo/rest/v1/feed?start_date=1995-11-07&end_date=1995-11-07&detailed=true&api_key=t0TVs3DtDT2H8Oy2Zy8m2eVrNsAVKAexjcZXUckd",
    "self" : "https://api.nasa.gov/neo/rest/v1/feed?start_date=1995-11-08&end_date=1995-11-08&detailed=true&api_key=t0TVs3DtDT2H8Oy2Zy8m2eVrNsAVKAexjcZXUckd"
  },
  "element_count" : 3,
  "near_earth_objects" : {
    "1995-11-08" : [ {
      "links" : {
        "self" : "https://api.nasa.gov/neo/rest/v1/neo/2003362?api_key=t0TVs3DtDT2H8Oy2Zy8m2eVrNsAVKAexjcZXUckd"
      },
      "neo_reference_id" : "2003362",
      "name" : "3362 Khufu (1984 QA)",
      "nasa_jpl_url" : "http://ssd.jpl.nasa.gov/sbdb.cgi?sstr=2003362",
      "absolute_magnitude_h" : 18.3,
      "estimated_diameter" : {
        "kilometers" : {
          "estimated_diameter_min" : 0.5815070396,
          "estimated_diameter_max" : 1.30028927
        },
        "meters" : {
          "estimated_diameter_min" : 581.5070396458,
          "estimated_diameter_max" : 1300.2892700427
        },
        "miles" : {
          "estimated_diameter_min" : 0.3613316107,
          "estimated_diameter_max" : 0.807962044
        },
        "feet" : {
          "estimated_diameter_min" : 1907.8315559515,
          "estimated_diameter_max" : 4266.0410487267
        }
      },
      "is_potentially_hazardous_asteroid" : true,
      "close_approach_data" : [ {
        "close_approach_date" : "1995-11-08",
        "epoch_date_close_approach" : 815817600000,
        "relative_velocity" : {
          "kilometers_per_second" : "11.6471067312",
          "kilometers_per_hour" : "41929.5842323715",
          "miles_per_hour" : "26053.4130470533"
        },
        "miss_distance" : {
          "astronomical" : "0.4686737132",
          "lunar" : "182.3140716553",
          "kilometers" : "70112592",
          "miles" : "43565944"
        },
        "orbiting_body" : "Earth"
      } ],
      "orbital_data" : {
        "orbit_id" : "23",
        "orbit_determination_date" : "2017-04-06 09:30:43",
        "orbit_uncertainty" : "1",
        "minimum_orbit_intersection" : ".013395",
        "jupiter_tisserand_invariant" : "6.017",
        "epoch_osculation" : "2458000.5",
        "eccentricity" : ".4685677328906181",
        "semi_major_axis" : ".9895267061027037",
        "inclination" : "9.91682854015037",
        "ascending_node_longitude" : "152.4478065215989",
        "orbital_period" : "359.5337847595645",
        "perihelion_distance" : ".5258664207894388",
        "perihelion_argument" : "55.04820444943432",
        "aphelion_distance" : "1.453186991415969",
        "perihelion_time" : "2458083.859959691524",
        "mean_anomaly" : "276.5319456445037",
        "mean_motion" : "1.001296721643968",
        "equinox" : "J2000"
      }
    }, {
      "links" : {
        "self" : "https://api.nasa.gov/neo/rest/v1/neo/3358223?api_key=t0TVs3DtDT2H8Oy2Zy8m2eVrNsAVKAexjcZXUckd"
      },
      "neo_reference_id" : "3358223",
      "name" : "(2006 VY2)",
      "nasa_jpl_url" : "http://ssd.jpl.nasa.gov/sbdb.cgi?sstr=3358223",
      "absolute_magnitude_h" : 22.7,
      "estimated_diameter" : {
        "kilometers" : {
          "estimated_diameter_min" : 0.0766575574,
          "estimated_diameter_max" : 0.1714115092
        },
        "meters" : {
          "estimated_diameter_min" : 76.6575573531,
          "estimated_diameter_max" : 171.4115092306
        },
        "miles" : {
          "estimated_diameter_min" : 0.0476327831,
          "estimated_diameter_max" : 0.1065101409
        },
        "feet" : {
          "estimated_diameter_min" : 251.5011804664,
          "estimated_diameter_max" : 562.3737359442
        }
      },
      "is_potentially_hazardous_asteroid" : false,
      "close_approach_data" : [ {
        "close_approach_date" : "1995-11-08",
        "epoch_date_close_approach" : 815817600000,
        "relative_velocity" : {
          "kilometers_per_second" : "10.3532420903",
          "kilometers_per_hour" : "37271.6715252229",
          "miles_per_hour" : "23159.1672318809"
        },
        "miss_distance" : {
          "astronomical" : "0.209470423",
          "lunar" : "81.4839935303",
          "kilometers" : "31336330",
          "miles" : "19471492"
        },
        "orbiting_body" : "Earth"
      } ],
      "orbital_data" : {
        "orbit_id" : "11",
        "orbit_determination_date" : "2017-04-06 09:07:40",
        "orbit_uncertainty" : "6",
        "minimum_orbit_intersection" : ".0758499",
        "jupiter_tisserand_invariant" : "6.573",
        "epoch_osculation" : "2458000.5",
        "eccentricity" : ".3771015365758616",
        "semi_major_axis" : ".8924375048209183",
        "inclination" : "14.56422880798156",
        "ascending_node_longitude" : "231.238900909218",
        "orbital_period" : "307.9393202707371",
        "perihelion_distance" : ".5558979504550221",
        "perihelion_argument" : "327.0394215010603",
        "aphelion_distance" : "1.228977059186815",
        "perihelion_time" : "2458152.279118325515",
        "mean_anomaly" : "182.5608780679715",
        "mean_motion" : "1.169061488099317",
        "equinox" : "J2000"
      }
    }, {
      "links" : {
        "self" : "https://api.nasa.gov/neo/rest/v1/neo/3634389?api_key=t0TVs3DtDT2H8Oy2Zy8m2eVrNsAVKAexjcZXUckd"
      },
      "neo_reference_id" : "3634389",
      "name" : "(2013 GS38)",
      "nasa_jpl_url" : "http://ssd.jpl.nasa.gov/sbdb.cgi?sstr=3634389",
      "absolute_magnitude_h" : 19.9,
      "estimated_diameter" : {
        "kilometers" : {
          "estimated_diameter_min" : 0.2783267681,
          "estimated_diameter_max" : 0.6223575734
        },
        "meters" : {
          "estimated_diameter_min" : 278.3267680719,
          "estimated_diameter_max" : 622.3575733667
        },
        "miles" : {
          "estimated_diameter_min" : 0.1729441822,
          "estimated_diameter_max" : 0.3867149477
        },
        "feet" : {
          "estimated_diameter_min" : 913.1455937611,
          "estimated_diameter_max" : 2041.8556210042
        }
      },
      "is_potentially_hazardous_asteroid" : false,
      "close_approach_data" : [ {
        "close_approach_date" : "1995-11-08",
        "epoch_date_close_approach" : 815817600000,
        "relative_velocity" : {
          "kilometers_per_second" : "23.3841231755",
          "kilometers_per_hour" : "84182.8434317334",
          "miles_per_hour" : "52307.9451312346"
        },
        "miss_distance" : {
          "astronomical" : "0.4636560973",
          "lunar" : "180.3622283936",
          "kilometers" : "69361968",
          "miles" : "43099528"
        },
        "orbiting_body" : "Earth"
      } ],
      "orbital_data" : {
        "orbit_id" : "26",
        "orbit_determination_date" : "2017-04-06 08:46:13",
        "orbit_uncertainty" : "1",
        "minimum_orbit_intersection" : ".076602",
        "jupiter_tisserand_invariant" : "4.483",
        "epoch_osculation" : "2458000.5",
        "eccentricity" : ".407681907296886",
        "semi_major_axis" : "1.479975538567063",
        "inclination" : "6.850632236516968",
        "ascending_node_longitude" : "128.1993835584808",
        "orbital_period" : "657.6279043782687",
        "perihelion_distance" : ".8766162882513069",
        "perihelion_argument" : "195.7444816379013",
        "aphelion_distance" : "2.08333478888282",
        "perihelion_time" : "2457880.502281180696",
        "mean_anomaly" : "65.68939439361333",
        "mean_motion" : ".5474220263514357",
        "equinox" : "J2000"
      }
    } ]
  }
}